0 GALAXY 4R
1 26298U 00020A   13281.50592281  .00000110  00000-0  10000-3 0  4133
2 26298 006.2512 058.3138 0007391 089.5623 270.5835 00.99833413 49391
0 GALAXY 4R
1 26298U 00020A   13287.51560503  .00000096  00000-0  10000-3 0  4157
2 26298 006.2629 058.2498 0007275 090.5404 269.6067 00.99835867 49456
0 GALAXY 4R
1 26298U 00020A   13287.51560792  .00000096  00000-0  10000-3 0  4168
2 26298 006.2632 058.2493 0007091 094.9480 265.1918 00.99835823 49451
0 GALAXY 4R
1 26298U 00020A   13289.51875333  .00000091  00000-0  10000-3 0  4176
2 26298 006.2673 058.2285 0007063 096.7864 263.3365 00.99836711 49475
0 GALAXY 4R
1 26298U 00020A   13291.52182317  .00000085  00000-0  10000-3 0  4187
2 26298 006.2713 058.2075 0007028 097.8815 262.2038 00.99837597 49496
0 GALAXY 4R
1 26298U 00020A   13294.52643539  .00000073  00000-0  10000-3 0  4196
2 26298 006.2771 058.1763 0006809 101.1880 258.8580 00.99838986 49520
